{"epoch":1784799577,"count":18318,"objects":[{"id":"27844","name":"CUTE-1","type":"PAYLOAD","l1":"1 27844U 03031E   26203.79315134  .00000212  00000-0  11057-3 0  9990","l2":"2 27844  98.6747 211.9055 0010855  83.1937 277.0476 14.24354881196741"},{"id":"27848","name":"CUBESAT XI 4","type":"PAYLOAD","l1":"1 27848U 03031J   26202.46414799  .00000171  00000-0  94004-4 0  9992","l2":"2 27848  98.6777 210.2780 0010700 103.0346 257.2027 14.23636890196250"},{"id":"28895","name":"CUBESAT XI 5","type":"PAYLOAD","l1":"1 28895U 05043F   26202.37477685  .00000932  00000-0  15414-3 0  9995","l2":"2 28895  98.3024 358.7230 0015344  97.2573 263.0378 14.72712744106788"},{"id":"32785","name":"CUTE-1.7+APD 2","type":"PAYLOAD","l1":"1 32785U 08021C   26203.90935349  .00005457  00000-0  34214-3 0  9999","l2":"2 32785  97.8297 186.0837 0006951 266.6067  93.4367 15.09749058990587"},{"id":"32790","name":"CANX-2","type":"PAYLOAD","l1":"1 32790U 08021H   26203.77465503  .00003369  00000-0  23653-3 0  9995","l2":"2 32790  97.8656 184.2545 0008679 286.8109  73.2165 15.05835967990165"},{"id":"32791","name":"SEEDS","type":"PAYLOAD","l1":"1 32791U 08021J   26203.44081651  .00019519  00000-0  59788-3 0  9990","l2":"2 32791  97.7536 203.0544 0003833 141.9870 218.1643 15.33845449992692"},{"id":"35932","name":"SWISSCUBE","type":"PAYLOAD","l1":"1 35932U 09051B   26203.67653410  .00000737  00000-0  15493-3 0  9994","l2":"2 35932  98.3999 112.1787 0008098  99.2605 260.9512 14.62540683894346"},{"id":"35933","name":"BEESAT","type":"PAYLOAD","l1":"1 35933U 09051C   26203.84145627  .00000667  00000-0  14346-3 0  9998","l2":"2 35933  98.3927 111.9069 0006451 110.1032 250.0863 14.61770632894398"},{"id":"35935","name":"ITUPSAT 1","type":"PAYLOAD","l1":"1 35935U 09051E   26203.72659903  .00000550  00000-0  12334-3 0  9990","l2":"2 35935  98.4011 110.9439 0008488 122.2889 237.9135 14.60486457893923"},{"id":"36799","name":"TISAT 1","type":"PAYLOAD","l1":"1 36799U 10035E   26203.31405679  .00022110  00000-0  69642-3 0  9997","l2":"2 36799  98.0706 153.0175 0004834 106.5546 253.6226 15.32930011873081"},{"id":"39090","name":"STRAND 1","type":"PAYLOAD","l1":"1 39090U 13009E   26203.42364014  .00000224  00000-0  89597-4 0  9991","l2":"2 39090  98.3941  22.7940 0009711 121.7520 238.4615 14.37181962702120"},{"id":"39091","name":"BRITE-A TUGSAT-1","type":"PAYLOAD","l1":"1 39091U 13009F   26203.73042842  .00000125  00000-0  56887-4 0  9994","l2":"2 39091  98.4015  22.2900 0011137 129.9893 230.2273 14.36554620702150"},{"id":"39151","name":"NEE 01 PEGASUS","type":"PAYLOAD","l1":"1 39151U 13018B   26203.83564981  .00002090  00000-0  20251-3 0  9993","l2":"2 39151  98.1267 349.1763 0013461  51.2724 308.9696 14.93816948716023"},{"id":"39269","name":"POPACS 2","type":"PAYLOAD","l1":"1 39269U 13055E   26203.46027237  .00023697 -86363-6  38842-3 0  9995","l2":"2 39269  80.9905 103.7968 0414143  80.5757 284.2013 14.92251122668475"},{"id":"39270","name":"POPACS 3","type":"PAYLOAD","l1":"1 39270U 13055F   26202.94855447  .00010270  00000-0  24503-3 0  9990","l2":"2 39270  81.0010 191.4730 0547879 324.0661  32.4808 14.56772916643613"},{"id":"39417","name":"ZACUBE","type":"PAYLOAD","l1":"1 39417U 13066B   26201.86646474  .00001847  00000-0  14537-3 0  9999","l2":"2 39417  97.7999 164.3670 0044079 137.0238 223.4444 15.01347026685787"},{"id":"39423","name":"WNISAT 1","type":"PAYLOAD","l1":"1 39423U 13066H   26203.82735977  .00000964  00000-0  18223-3 0  9996","l2":"2 39423  97.7245 350.4618 0164207 119.4423 242.3277 14.58132561671926"},{"id":"39427","name":"TRITON 1","type":"PAYLOAD","l1":"1 39427U 13066M   26203.88343910  .00001300  00000-0  15986-3 0  9996","l2":"2 39427  97.8209 112.8733 0091129 117.3660 243.6863 14.81813909679371"},{"id":"39430","name":"GOMX 1","type":"PAYLOAD","l1":"1 39430U 13066Q   26203.93331652  .00000848  00000-0  13411-3 0  9993","l2":"2 39430  97.6471  42.1406 0127590 323.2817  35.9698 14.69553988675165"},{"id":"39440","name":"CUBEBUG 2","type":"PAYLOAD","l1":"1 39440U 13066AA  26203.83049192  .00002488  00000-0  23220-3 0  9999","l2":"2 39440  97.8916 152.9695 0055464 269.4199  90.0665 14.94003846682318"},{"id":"39441","name":"NEE 02 KRYSAOR","type":"PAYLOAD","l1":"1 39441U 13066AB  26203.61112821  .00001610  00000-0  18062-3 0  9990","l2":"2 39441  97.8896 142.5782 0064785 314.6671  44.9275 14.86760430681462"},{"id":"39444","name":"FUNCUBE 1","type":"PAYLOAD","l1":"1 39444U 13066AE  26203.64898489  .00007803  00000-0  47749-3 0  9991","l2":"2 39444  97.8301 175.8499 0038145  83.5370 277.0199 15.09895632685017"},{"id":"39446","name":"UWE-3","type":"PAYLOAD","l1":"1 39446U 13066AG  26203.83887040  .00003075  00000-0  26485-3 0  9996","l2":"2 39446  97.8728 160.1630 0047823 198.4515 161.4974 14.97239464682910"},{"id":"40020","name":"BRITE TORONTO","type":"PAYLOAD","l1":"1 40020U 14033L   26203.77616212  .00000850  00000-0  13468-3 0  9990","l2":"2 40020  97.9779 332.0567 0079038 162.0536 198.3491 14.72733867647451"},{"id":"40021","name":"DUCHIFAT 1","type":"PAYLOAD","l1":"1 40021U 14033M   26203.61891863  .00168289  00000-0  12291-2 0  9994","l2":"2 40021  98.0416 267.9836 0003731 228.0656 132.0288 15.72730714661308"},{"id":"40024","name":"NANOSAT C BR1","type":"PAYLOAD","l1":"1 40024U 14033Q   26203.08385036  .00018646  00000-0  59621-3 0  9998","l2":"2 40024  98.0713 238.5904 0005023  80.3934 279.7874 15.32485208659325"},{"id":"40025","name":"QB50P1","type":"PAYLOAD","l1":"1 40025U 14033R   26203.79923947  .00008602  00000-0  41700-3 0  9996","l2":"2 40025  98.0975 217.4558 0010565 102.9257 257.3156 15.18749882658434"},{"id":"40032","name":"QB50P2","type":"PAYLOAD","l1":"1 40032U 14033Y   26203.75700805  .00007182  00000-0  38192-3 0  9999","l2":"2 40032  98.0772 202.8656 0009014  62.7755 297.4394 15.15578446658057"},{"id":"40037","name":"PERSEUS M2","type":"PAYLOAD","l1":"1 40037U 14033AD  26203.92464656  .00000795  00000-0  77039-4 0  9991","l2":"2 40037  97.9973 155.1986 0011611 174.8784 185.2557 14.95597004656121"},{"id":"40039","name":"PERSEUS M1","type":"PAYLOAD","l1":"1 40039U 14033AF  26203.82778958  .00000702  00000-0  68422-4 0  9999","l2":"2 40039  97.9652 148.5497 0011518 171.8006 188.3405 14.95730126655961"}]}